start=new Date('2022-02-16T00:00:00.000Z').valueOf();
sats=[{"ECCENTRICITY":"0.00014240","DECAY_DATE":null,"PERIOD":"95.592","COUNTRY_CODE":"US","INCLINATION":"53.0531","SEMIMAJOR_AXIS":"6925.344","MEAN_ANOMALY":"291.5273","LAUNCH_DATE":"2021-02-16","MEAN_ELEMENT_THEORY":"SGP4","MEAN_MOTION_DDOT":"0.0000000000000","ARG_OF_PERICENTER":"68.5868","EPOCH":"2022-02-15T20:01:42.452832","MEAN_MOTION":"15.06401434","OBJECT_NAME":"STARLINK-2038","BSTAR":"0.00015196000000","ELEMENT_SET_NO":"999","CLASSIFICATION_TYPE":"U","FILE":"3301463","PERIAPSIS":"546.223","SITE":"AFETR","RCS_SIZE":"LARGE","TLE_LINE2":"2 47654  53.0531 248.4079 0001424  68.5868 291.5273 15.06401434 56481","NORAD_CAT_ID":"47654","RA_OF_ASC_NODE":"248.4079","TLE_LINE1":"1 47654U 21012AL  22046.83451913  .00001983  00000-0  15196-3 0  9996","OBJECT_ID":"2021-012AL","REV_AT_EPOCH":"5648","TIME_SYSTEM":"UTC","OBJECT_TYPE":"PAYLOAD","GP_ID":"196059077","CENTER_NAME":"EARTH","APOAPSIS":"548.195","REF_FRAME":"TEME","MEAN_MOTION_DOT":"0.00001983","EPHEMERIS_TYPE":"0"},{"RCS_SIZE":"LARGE","TLE_LINE1":"1 47655U 21012AM  22046.82715263  .00003273  00000-0  23854-3 0  9991","RA_OF_ASC_NODE":"248.4475","NORAD_CAT_ID":"47655","TLE_LINE2":"2 47655  53.0533 248.4475 0001492  70.3093 289.8056 15.06396847 56480","GP_ID":"196059328","CENTER_NAME":"EARTH","APOAPSIS":"548.256","TIME_SYSTEM":"UTC","OBJECT_TYPE":"PAYLOAD","REV_AT_EPOCH":"5648","OBJECT_ID":"2021-012AM","EPHEMERIS_TYPE":"0","MEAN_MOTION_DOT":"0.00003273","REF_FRAME":"TEME","COUNTRY_CODE":"US","INCLINATION":"53.0533","SEMIMAJOR_AXIS":"6925.358","DECAY_DATE":null,"ECCENTRICITY":"0.00014920","PERIOD":"95.592","ARG_OF_PERICENTER":"70.3093","EPOCH":"2022-02-15T19:51:05.987232","MEAN_MOTION_DDOT":"0.0000000000000","MEAN_ELEMENT_THEORY":"SGP4","LAUNCH_DATE":"2021-02-16","MEAN_ANOMALY":"289.8056","ELEMENT_SET_NO":"999","OBJECT_NAME":"STARLINK-2039","BSTAR":"0.00023854000000","MEAN_MOTION":"15.06396847","SITE":"AFETR","PERIAPSIS":"546.190","FILE":"3301463","CLASSIFICATION_TYPE":"U"},{"CLASSIFICATION_TYPE":"U","FILE":"3301463","PERIAPSIS":"546.007","SITE":"AFETR","MEAN_MOTION":"15.06394026","BSTAR":"0.00021170000000","OBJECT_NAME":"STARLINK-2040","ELEMENT_SET_NO":"999","MEAN_ANOMALY":"299.2280","LAUNCH_DATE":"2021-02-16","MEAN_ELEMENT_THEORY":"SGP4","MEAN_MOTION_DDOT":"0.0000000000000","EPOCH":"2022-02-15T20:15:00.102816","ARG_OF_PERICENTER":"60.8886","ECCENTRICITY":"0.00017690","DECAY_DATE":null,"PERIOD":"95.593","COUNTRY_CODE":"US","SEMIMAJOR_AXIS":"6925.367","INCLINATION":"53.0536","REF_FRAME":"TEME","MEAN_MOTION_DOT":"0.00002873","EPHEMERIS_TYPE":"0","OBJECT_ID":"2021-012AN","REV_AT_EPOCH":"5676","OBJECT_TYPE":"PAYLOAD","TIME_SYSTEM":"UTC","APOAPSIS":"548.457","GP_ID":"196058574","CENTER_NAME":"EARTH","TLE_LINE2":"2 47656  53.0536 228.3699 0001769  60.8886 299.2280 15.06394026 56762","NORAD_CAT_ID":"47656","TLE_LINE1":"1 47656U 21012AN  22046.84375119  .00002873  00000-0  21170-3 0  9990","RA_OF_ASC_NODE":"228.3699","RCS_SIZE":"LARGE"},{"MEAN_ANOMALY":"286.8934","LAUNCH_DATE":"2021-02-16","MEAN_ELEMENT_THEORY":"SGP4","MEAN_MOTION_DDOT":"0.0000000000000","ARG_OF_PERICENTER":"73.2227","EPOCH":"2022-02-15T20:22:57.533664","ECCENTRICITY":"0.00015640","DECAY_DATE":null,"PERIOD":"95.593","SEMIMAJOR_AXIS":"6925.378","COUNTRY_CODE":"US","INCLINATION":"53.0541","CLASSIFICATION_TYPE":"U","FILE":"3301463","PERIAPSIS":"546.160","SITE":"AFETR","MEAN_MOTION":"15.06390373","OBJECT_NAME":"STARLINK-2041","BSTAR":"0.00015781000000","ELEMENT_SET_NO":"999","TLE_LINE2":"2 47657  53.0541 248.3558 0001564  73.2227 286.8934 15.06390373 56483","NORAD_CAT_ID":"47657","RA_OF_ASC_NODE":"248.3558","TLE_LINE1":"1 47657U 21012AP  22046.84927701  .00002069  00000-0  15781-3 0  9999","RCS_SIZE":"LARGE","REF_FRAME":"TEME","MEAN_MOTION_DOT":"0.00002069","EPHEMERIS_TYPE":"0","OBJECT_ID":"2021-012AP","REV_AT_EPOCH":"5648","TIME_SYSTEM":"UTC","OBJECT_TYPE":"PAYLOAD","GP_ID":"196058826","APOAPSIS":"548.326","CENTER_NAME":"EARTH"},{"OBJECT_TYPE":"PAYLOAD","TIME_SYSTEM":"UTC","GP_ID":"196059577","APOAPSIS":"548.384","CENTER_NAME":"EARTH","OBJECT_ID":"2021-012AQ","REV_AT_EPOCH":"5650","MEAN_MOTION_DOT":"0.00003131","EPHEMERIS_TYPE":"0","REF_FRAME":"TEME","RCS_SIZE":"LARGE","RA_OF_ASC_NODE":"248.3839","TLE_LINE1":"1 47658U 21012AQ  22046.84189873  .00003131  00000-0  22898-3 0  9998","TLE_LINE2":"2 47658  53.0524 248.3839 0001687  72.8875 287.2298 15.06399332 56502","NORAD_CAT_ID":"47658","ELEMENT_SET_NO":"999","MEAN_MOTION":"15.06399332","BSTAR":"0.00022898000000","OBJECT_NAME":"STARLINK-2042","PERIAPSIS":"546.047","SITE":"AFETR","CLASSIFICATION_TYPE":"U","FILE":"3301463","SEMIMAJOR_AXIS":"6925.351","COUNTRY_CODE":"US","INCLINATION":"53.0524","ECCENTRICITY":"0.00016870","DECAY_DATE":null,"PERIOD":"95.592","MEAN_MOTION_DDOT":"0.0000000000000","EPOCH":"2022-02-15T20:12:20.050272","ARG_OF_PERICENTER":"72.8875","MEAN_ANOMALY":"287.2298","LAUNCH_DATE":"2021-02-16","MEAN_ELEMENT_THEORY":"SGP4"},{"MEAN_MOTION_DDOT":"0.0000000000000","ARG_OF_PERICENTER":"77.1065","EPOCH":"2022-02-15T22:00:01.999584","LAUNCH_DATE":"2021-02-16","MEAN_ANOMALY":"188.8373","MEAN_ELEMENT_THEORY":"SGP4","COUNTRY_CODE":"US","SEMIMAJOR_AXIS":"6925.329","INCLINATION":"53.0551","DECAY_DATE":null,"PERIOD":"95.592","ECCENTRICITY":"0.00011400","PERIAPSIS":"546.405","SITE":"AFETR","CLASSIFICATION_TYPE":"U","FILE":"3301463","ELEMENT_SET_NO":"999","MEAN_MOTION":"15.06406273","OBJECT_NAME":"STARLINK-2043","BSTAR":"-0.00157230000000","RA_OF_ASC_NODE":"128.0361","TLE_LINE1":"1 47659U 21012AR  22046.91668981 -.00023627  00000-0 -15723-2 0  9991","TLE_LINE2":"2 47659  53.0551 128.0361 0001140  77.1065 188.8373 15.06406273  3594","NORAD_CAT_ID":"47659","RCS_SIZE":"LARGE","MEAN_MOTION_DOT":"-0.00023627","EPHEMERIS_TYPE":"0","REF_FRAME":"TEME","TIME_SYSTEM":"UTC","OBJECT_TYPE":"PAYLOAD","APOAPSIS":"547.984","GP_ID":"196059828","CENTER_NAME":"EARTH","OBJECT_ID":"2021-012AR","REV_AT_EPOCH":"359"},{"MEAN_MOTION_DOT":"-0.00010538","EPHEMERIS_TYPE":"0","REF_FRAME":"TEME","OBJECT_TYPE":"PAYLOAD","TIME_SYSTEM":"UTC","GP_ID":"196058075","APOAPSIS":"548.323","CENTER_NAME":"EARTH","OBJECT_ID":"2021-012AS","REV_AT_EPOCH":"359","TLE_LINE1":"1 47660U 21012AS  22046.91668981 -.00010538  00000-0 -68975-3 0  9998","RA_OF_ASC_NODE":"118.0347","TLE_LINE2":"2 47660  53.0550 118.0347 0001565  50.3545  75.7397 15.06391788  3599","NORAD_CAT_ID":"47660","RCS_SIZE":"LARGE","PERIAPSIS":"546.155","SITE":"AFETR","CLASSIFICATION_TYPE":"U","FILE":"3301463","ELEMENT_SET_NO":"999","MEAN_MOTION":"15.06391788","BSTAR":"-0.00068975000000","OBJECT_NAME":"STARLINK-2044","MEAN_MOTION_DDOT":"0.0000000000000","EPOCH":"2022-02-15T22:00:01.999584","ARG_OF_PERICENTER":"50.3545","LAUNCH_DATE":"2021-02-16","MEAN_ANOMALY":"75.7397","MEAN_ELEMENT_THEORY":"SGP4","INCLINATION":"53.0550","COUNTRY_CODE":"US","SEMIMAJOR_AXIS":"6925.374","DECAY_DATE":null,"ECCENTRICITY":"0.00015650","PERIOD":"95.593"},{"COUNTRY_CODE":"US","INCLINATION":"53.0545","SEMIMAJOR_AXIS":"6925.368","DECAY_DATE":null,"ECCENTRICITY":"0.00014740","PERIOD":"95.593","EPOCH":"2022-02-15T20:57:26.728128","ARG_OF_PERICENTER":"78.4296","MEAN_MOTION_DDOT":"0.0000000000000","MEAN_ELEMENT_THEORY":"SGP4","MEAN_ANOMALY":"281.6858","LAUNCH_DATE":"2021-02-16","ELEMENT_SET_NO":"999","BSTAR":"0.00000482900000","OBJECT_NAME":"STARLINK-2051","MEAN_MOTION":"15.06393696","SITE":"AFETR","PERIAPSIS":"546.212","FILE":"3301463","CLASSIFICATION_TYPE":"U","RCS_SIZE":"LARGE","RA_OF_ASC_NODE":"228.2347","TLE_LINE1":"1 47661U 21012AT  22046.87322602 -.00000210  00000-0  48290-5 0  9996","NORAD_CAT_ID":"47661","TLE_LINE2":"2 47661  53.0545 228.2347 0001474  78.4296 281.6858 15.06393696 56757","GP_ID":"196058327","APOAPSIS":"548.254","CENTER_NAME":"EARTH","OBJECT_TYPE":"PAYLOAD","TIME_SYSTEM":"UTC","REV_AT_EPOCH":"5675","OBJECT_ID":"2021-012AT","EPHEMERIS_TYPE":"0","MEAN_MOTION_DOT":"-0.00000210","REF_FRAME":"TEME"},{"DECAY_DATE":null,"PERIOD":"95.592","ECCENTRICITY":"0.00015940","COUNTRY_CODE":"US","INCLINATION":"53.0527","SEMIMAJOR_AXIS":"6925.327","MEAN_ELEMENT_THEORY":"SGP4","MEAN_ANOMALY":"289.9412","LAUNCH_DATE":"2021-02-16","ARG_OF_PERICENTER":"70.1748","EPOCH":"2022-02-15T20:29:32.328096","MEAN_MOTION_DDOT":"0.0000000000000","OBJECT_NAME":"STARLINK-2052","BSTAR":"0.00023809000000","MEAN_MOTION":"15.06407154","ELEMENT_SET_NO":"999","FILE":"3301463","CLASSIFICATION_TYPE":"U","SITE":"AFETR","PERIAPSIS":"546.088","RCS_SIZE":"LARGE","NORAD_CAT_ID":"47662","TLE_LINE2":"2 47662  53.0527 228.3299 0001594  70.1748 289.9412 15.06407154 56773","TLE_LINE1":"1 47662U 21012AU  22046.85384639  .00003267  00000-0  23809-3 0  9994","RA_OF_ASC_NODE":"228.3299","REV_AT_EPOCH":"5677","OBJECT_ID":"2021-012AU","GP_ID":"196059078","CENTER_NAME":"EARTH","APOAPSIS":"548.296","TIME_SYSTEM":"UTC","OBJECT_TYPE":"PAYLOAD","REF_FRAME":"TEME","EPHEMERIS_TYPE":"0","MEAN_MOTION_DOT":"0.00003267"},{"RCS_SIZE":"LARGE","RA_OF_ASC_NODE":"148.0516","TLE_LINE1":"1 47663U 21012AV  22046.91668981 -.00022640  00000-0 -15057-2 0  9990","TLE_LINE2":"2 47663  53.0563 148.0516 0001491  59.1332 101.9192 15.06402527  3595","NORAD_CAT_ID":"47663","OBJECT_TYPE":"PAYLOAD","TIME_SYSTEM":"UTC","APOAPSIS":"548.238","GP_ID":"196059329","CENTER_NAME":"EARTH","OBJECT_ID":"2021-012AV","REV_AT_EPOCH":"359","MEAN_MOTION_DOT":"-0.00022640","EPHEMERIS_TYPE":"0","REF_FRAME":"TEME","COUNTRY_CODE":"US","INCLINATION":"53.0563","SEMIMAJOR_AXIS":"6925.341","DECAY_DATE":null,"PERIOD":"95.592","ECCENTRICITY":"0.00014910","MEAN_MOTION_DDOT":"0.0000000000000","EPOCH":"2022-02-15T22:00:01.999584","ARG_OF_PERICENTER":"59.1332","MEAN_ANOMALY":"101.9192","LAUNCH_DATE":"2021-02-16","MEAN_ELEMENT_THEORY":"SGP4","ELEMENT_SET_NO":"999","MEAN_MOTION":"15.06402527","BSTAR":"-0.00150570000000","OBJECT_NAME":"STARLINK-2053","PERIAPSIS":"546.173","SITE":"AFETR","CLASSIFICATION_TYPE":"U","FILE":"3301463"}];
